{"type":"FeatureCollection","features":[{"type":"Feature","geometry":{"type":"Point","coordinates":[9.059908399805042,40.342593501167,308]},"properties":{"FID":"1","NAME":"101","LIT_PT_SUP":"S FIL B MC","QUANTIT":"COM","PRES_AFF_R":"NO","TIPO_AFF":"NA","NOTE":"SUP.STRUT.","VEGETAZION":" ","ALTRO":"SPIETRATO E LAVORATO","OSSERVAZIO":" ","ELEV1":"308","ASPECT":"149","SLOPE":"4","Contatto_LT":"25"},"id":1},{"type":"Feature","geometry":{"type":"Point","coordinates":[9.05990760030446,40.34169250101641,301]},"properties":{"FID":"2","NAME":"102","LIT_PT_SUP":"S MA","QUANTIT":"COM","PRES_AFF_R":"NO","TIPO_AFF":"NA","NOTE":"VERS.REG. - SUP.STRUT. ?","VEGETAZION":" ","ALTRO":" ","OSSERVAZIO":" ","ELEV1":"301","ASPECT":"207","SLOPE":"3","Contatto_LT":"20"},"id":2},{"type":"Feature","geometry":{"type":"Point","coordinates":[9.059906799905546,40.34079160112335,297]},"properties":{"FID":"3","NAME":"103","LIT_PT_SUP":"S MA","QUANTIT":"COM","PRES_AFF_R":"NO","TIPO_AFF":"NA","NOTE":"SUP.STRUT.","VEGETAZION":" ","ALTRO":" ","OSSERVAZIO":"Area sub-pianeggiante ondulata. Affioramenti rocciosi forse creati da spietramenti in passato, grossi blocchi","ELEV1":"297","ASPECT":"108","SLOPE":"5","Contatto_LT":"20"},"id":3},{"type":"Feature","geometry":{"type":"Point","coordinates":[9.059906000404927,40.33989070152442,297]},"properties":{"FID":"4","NAME":"104","LIT_PT_SUP":"S MA","QUANTIT":"COM","PRES_AFF_R":"NO","TIPO_AFF":"NA","NOTE":"VERS.REG.","VEGETAZION":" ","ALTRO":" ","OSSERVAZIO":"Versante regolare convesso","ELEV1":"297","ASPECT":"63","SLOPE":"6","Contatto_LT":"10"},"id":4},{"type":"Feature","geometry":{"type":"Point","coordinates":[9.059905200006014,40.33898980153544,306]},"properties":{"FID":"5","NAME":"105","LIT_PT_SUP":"S MA","QUANTIT":"MLT","PRES_AFF_R":"NO","TIPO_AFF":"NA","NOTE":"VERS.REG.","VEGETAZION":" ","ALTRO":" ","OSSERVAZIO":" ","ELEV1":"306","ASPECT":"45","SLOPE":"8","Contatto_LT":"30"},"id":5},{"type":"Feature","geometry":{"type":"Point","coordinates":[9.0599043996071,40.33808880118638,304]},"properties":{"FID":"6","NAME":"106","LIT_PT_SUP":"S MA SN","QUANTIT":"ABB","PRES_AFF_R":"SI","TIPO_AFF":"FR","NOTE":"DEP.VERS.","VEGETAZION":" ","ALTRO":"Presenza scisto nero","OSSERVAZIO":"Compluvio, rsosione incanalata (Gully), debole deposito versante, substrato sub-aff.","ELEV1":"304","ASPECT":"108","SLOPE":"9","Contatto_LT":"10"},"id":6},{"type":"Feature","geometry":{"type":"Point","coordinates":[9.059903699819495,40.33718790110232,293]},"properties":{"FID":"7","NAME":"107","LIT_PT_SUP":"S MA SN MA G B e V MC","QUANTIT":"MLT","PRES_AFF_R":"SI","TIPO_AFF":"FR","NOTE":"SUP.STRUT.","VEGETAZION":" ","ALTRO":" ","OSSERVAZIO":"Affioramento roccioso di aspetto granitoide violaceo microcristallino","ELEV1":"293","ASPECT":"140","SLOPE":"24","Contatto_LT":"20"},"id":7},{"type":"Feature","geometry":{"type":"Point","coordinates":[9.059902900318876,40.336287001314574,274]},"properties":{"FID":"8","NAME":"108","LIT_PT_SUP":"S MA","QUANTIT":"COM","PRES_AFF_R":"NO","TIPO_AFF":"NA","NOTE":"NA","VEGETAZION":" ","ALTRO":" ","OSSERVAZIO":" ","ELEV1":"274","ASPECT":"126","SLOPE":"19","Contatto_LT":"20"},"id":8},{"type":"Feature","geometry":{"type":"Point","coordinates":[9.059902099919963,40.33538600116436,271]},"properties":{"FID":"9","NAME":"109","LIT_PT_SUP":"S MA","QUANTIT":"COM - MLT","PRES_AFF_R":"SI","TIPO_AFF":"FR","NOTE":"VERS.GRAD.","VEGETAZION":" ","ALTRO":" ","OSSERVAZIO":"Versante gradonato (terrazzato) per affioramenti rocciosi (scisto)","ELEV1":"271","ASPECT":"9","SLOPE":"14","Contatto_LT":"20"},"id":9},{"type":"Feature","geometry":{"type":"Point","coordinates":[9.05990130041938,40.334485101284805,277]},"properties":{"FID":"10","NAME":"110","LIT_PT_SUP":"S MA G B e V MC","QUANTIT":"COM - MLT","PRES_AFF_R":"SI","TIPO_AFF":"FR","NOTE":" ","VEGETAZION":" ","ALTRO":" ","OSSERVAZIO":"Affioramento roccioso poco a monte (scisto + elementi granitoidi)","ELEV1":"277","ASPECT":"162","SLOPE":"11","Contatto_LT":"15"},"id":10},{"type":"Feature","geometry":{"type":"Point","coordinates":[9.059900500020433,40.33358420101843,263]},"properties":{"FID":"11","NAME":"111","LIT_PT_SUP":"S MA G","QUANTIT":"MLT","PRES_AFF_R":"NO","TIPO_AFF":"NA","NOTE":"VERS.GRAD.","VEGETAZION":" ","ALTRO":"Alcuni elementi granitoidi isolati","OSSERVAZIO":"Versante gradonato a monte, affioramento roccioso anche granito","ELEV1":"263","ASPECT":"79","SLOPE":"11","Contatto_LT":"20"},"id":11},{"type":"Feature","geometry":{"type":"Point","coordinates":[9.05989969962152,40.33268330105056,281]},"properties":{"FID":"12","NAME":"112","LIT_PT_SUP":"S FIL B MC","QUANTIT":"ABB","PRES_AFF_R":"SI","TIPO_AFF":"FR","NOTE":"SUP.STRUT - DETR.VERS.","VEGETAZION":" ","ALTRO":"Pietrosit  superficiale affiora ampia su crinale a monte","OSSERVAZIO":" ","ELEV1":"281","ASPECT":"50","SLOPE":"12","Contatto_LT":"10"},"id":12},{"type":"Feature","geometry":{"type":"Point","coordinates":[9.060481700127816,40.34244080128787,305]},"properties":{"FID":"13","NAME":"120/B","LIT_PT_SUP":"S","QUANTIT":"COM - SCR","PRES_AFF_R":"NO","TIPO_AFF":"NA","NOTE":"SUP.STRUT.","VEGETAZION":"ROVERELLA + LETTIERA","ALTRO":" ","OSSERVAZIO":" ","ELEV1":"305","ASPECT":"135","SLOPE":"1","Contatto_LT":"30"},"id":13},{"type":"Feature","geometry":{"type":"Point","coordinates":[9.061084999689463,40.34169190122478,303]},"properties":{"FID":"14","NAME":"121","LIT_PT_SUP":"S MA","QUANTIT":"COM","PRES_AFF_R":"SI","TIPO_AFF":"FR","NOTE":"VERS.REG.","VEGETAZION":" ","ALTRO":" ","OSSERVAZIO":"Versante convesso regolare con frequenti affioramenti dii scisto e ma prevalentemente in blocchi","ELEV1":"303","ASPECT":"225","SLOPE":"7","Contatto_LT":"25"},"id":14},{"type":"Feature","geometry":{"type":"Point","coordinates":[9.061084200188878,40.3407910013237,299]},"properties":{"FID":"15","NAME":"122","LIT_PT_SUP":"S MA","QUANTIT":"COM","PRES_AFF_R":"NO","TIPO_AFF":"NA","NOTE":"DEP.COLL.","VEGETAZION":" ","ALTRO":" ","OSSERVAZIO":"Depositi colluviali con pietre e blocchi poco frequenti","ELEV1":"299","ASPECT":"225","SLOPE":"2","Contatto_LT":"10"},"id":15},{"type":"Feature","geometry":{"type":"Point","coordinates":[9.061083399789933,40.33989010103204,299]},"properties":{"FID":"16","NAME":"123","LIT_PT_SUP":"S + FIL. G. B.MC.","QUANTIT":"MLT","PRES_AFF_R":"SI","TIPO_AFF":"FR","NOTE":"SUP.STRUT.","VEGETAZION":" ","ALTRO":" ","OSSERVAZIO":"Versante ondulato gibboso convesso con frequenti affioramenti rocciosi fratturati in blocchi, sia scisto che granito","ELEV1":"299","ASPECT":"225","SLOPE":"7","Contatto_LT":"10"},"id":16},{"type":"Feature","geometry":{"type":"Point","coordinates":[9.06108260028935,40.338989101065806,294]},"properties":{"FID":"17","NAME":"124","LIT_PT_SUP":"S + FIL. G. B.MC.","QUANTIT":"COM","PRES_AFF_R":"SI","TIPO_AFF":"FR","NOTE":"DEP.VERS.","VEGETAZION":" ","ALTRO":" ","OSSERVAZIO":"Depositi di versante e fondovalle ai piedi di piccolo affioramento roccioso di scisti e graniti","ELEV1":"294","ASPECT":"70","SLOPE":"14","Contatto_LT":"10"},"id":17},{"type":"Feature","geometry":{"type":"Point","coordinates":[9.061081799890436,40.3380882013627,295]},"properties":{"FID":"18","NAME":"125","LIT_PT_SUP":"FIL. G. B. MC.","QUANTIT":"MLT","PRES_AFF_R":"SI","TIPO_AFF":"FR","NOTE":"DEP.VERS.","VEGETAZION":" ","ALTRO":" ","OSSERVAZIO":"Ciottoli e pietre presso grosso affioramento roccioso granitoide bianco microcristallino","ELEV1":"295","ASPECT":"156","SLOPE":"14","Contatto_LT":"10"},"id":18},{"type":"Feature","geometry":{"type":"Point","coordinates":[9.061081000389818,40.33718730127064,280]},"properties":{"FID":"19","NAME":"126","LIT_PT_SUP":"S + FIL. B. MC.","QUANTIT":"COM - MLT","PRES_AFF_R":"SI","TIPO_AFF":"FR","NOTE":"DEP.VERS.","VEGETAZION":" ","ALTRO":" ","OSSERVAZIO":"Ciottoli e pietre presso grosso affioramento roccioso granitoide bianco microcristallino","ELEV1":"280","ASPECT":"315","SLOPE":"1","Contatto_LT":"25"},"id":19},{"type":"Feature","geometry":{"type":"Point","coordinates":[9.061080199990904,40.33628640147489,285]},"properties":{"FID":"20","NAME":"127","LIT_PT_SUP":"S + FIL. B. MC.","QUANTIT":"ABB","PRES_AFF_R":"NO","TIPO_AFF":"NA","NOTE":"DEP.GRAV.","VEGETAZION":" ","ALTRO":" ","OSSERVAZIO":"Dep. gravitativo e colluviale eterometrici da ghiaia media a blocchi","ELEV1":"285","ASPECT":"243","SLOPE":"13","Contatto_LT":"25"},"id":20},{"type":"Feature","geometry":{"type":"Point","coordinates":[9.061079399591991,40.335385401316664,260]},"properties":{"FID":"21","NAME":"128","LIT_PT_SUP":"S + FIL. B. MC.","QUANTIT":"ABB","PRES_AFF_R":"NO","TIPO_AFF":"NA","NOTE":"DEP. COLL.","VEGETAZION":" ","ALTRO":" ","OSSERVAZIO":"Depositi colluviali grossolani. Erosione intensa","ELEV1":"260","ASPECT":"218","SLOPE":"8","Contatto_LT":"20"},"id":21},{"type":"Feature","geometry":{"type":"Point","coordinates":[9.061078500378395,40.334484501429095,260]},"properties":{"FID":"22","NAME":"129","LIT_PT_SUP":"Filone granitoide B. MC. e violaceo cristallino con evidenze di metamorfismo di contatto","QUANTIT":"ABB","PRES_AFF_R":"SI","TIPO_AFF":"FR","NOTE":" ","VEGETAZION":" ","ALTRO":" ","OSSERVAZIO":"Detrito gravitativo e colluvio grossolano ai piedi di affioramento roccioso che coincide con porzione convessa del versante","ELEV1":"260","ASPECT":"135","SLOPE":"1","Contatto_LT":"10"},"id":22},{"type":"Feature","geometry":{"type":"Point","coordinates":[9.061077699979482,40.333583601154714,250]},"properties":{"FID":"23","NAME":"130","LIT_PT_SUP":"S + RARI ELEM FIL. G. M.","QUANTIT":"MLT","PRES_AFF_R":"NO","TIPO_AFF":"NA","NOTE":" ","VEGETAZION":" ","ALTRO":" ","OSSERVAZIO":"Alluvioni recenti e attuali con abbondanti depositi colluviali grossi da versante ripido","ELEV1":"250","ASPECT":"153","SLOPE":"3","Contatto_LT":"10"},"id":23},{"type":"Feature","geometry":{"type":"Point","coordinates":[9.061076899580534,40.3326826012002,257]},"properties":{"FID":"24","NAME":"131","LIT_PT_SUP":"S MA","QUANTIT":"MLT","PRES_AFF_R":"SI","TIPO_AFF":"FR","NOTE":"VERS.GRAD.","VEGETAZION":" ","ALTRO":"Alcuni elementi granitoidi isolati","OSSERVAZIO":"Versante gradonato a monte, affioramento roccioso anche granito","ELEV1":"257","ASPECT":"72","SLOPE":"18","Contatto_LT":"15"},"id":24},{"type":"Feature","geometry":{"type":"Point","coordinates":[9.062262399972797,40.34169130143314,310]},"properties":{"FID":"25","NAME":"140","LIT_PT_SUP":"S FIL B MC","QUANTIT":"SCR","PRES_AFF_R":"NO","TIPO_AFF":"NA","NOTE":"SUP.STRUT.","VEGETAZION":"ROVERELLA E SUGHERETA","ALTRO":" ","OSSERVAZIO":" ","ELEV1":"310","ASPECT":"315","SLOPE":"1","Contatto_LT":"25"},"id":25},{"type":"Feature","geometry":{"type":"Point","coordinates":[9.062261599573883,40.34079040152405,310]},"properties":{"FID":"26","NAME":"141","LIT_PT_SUP":"S FIL B MC","QUANTIT":"MLT","PRES_AFF_R":"SI","TIPO_AFF":"FR","NOTE":"SUP.STRUT.","VEGETAZION":"ROVERELLA E SUGHERETA","ALTRO":" ","OSSERVAZIO":" ","ELEV1":"310","ASPECT":"243","SLOPE":"6","Contatto_LT":"20"},"id":26},{"type":"Feature","geometry":{"type":"Point","coordinates":[9.062260800073267,40.33988940125648,306]},"properties":{"FID":"27","NAME":"142","LIT_PT_SUP":"S","QUANTIT":"COM","PRES_AFF_R":"SI","TIPO_AFF":"FR","NOTE":"SUP.STRUT.","VEGETAZION":" ","ALTRO":" ","OSSERVAZIO":" ","ELEV1":"306","ASPECT":"252","SLOPE":"2","Contatto_LT":"25"},"id":27},{"type":"Feature","geometry":{"type":"Point","coordinates":[9.062259999674351,40.338988501250135,298]},"properties":{"FID":"28","NAME":"143","LIT_PT_SUP":"S FIL B MC","QUANTIT":"COM","PRES_AFF_R":"SI","TIPO_AFF":"NA","NOTE":"SUP.STRUT.","VEGETAZION":" ","ALTRO":" ","OSSERVAZIO":" ","ELEV1":"298","ASPECT":"266","SLOPE":"11","Contatto_LT":"20"},"id":28},{"type":"Feature","geometry":{"type":"Point","coordinates":[9.062259099562427,40.33808760153903,290]},"properties":{"FID":"29","NAME":"144","LIT_PT_SUP":"S","QUANTIT":"ABB","PRES_AFF_R":"SI","TIPO_AFF":"FR","NOTE":"SUP.STRUT.","VEGETAZION":" ","ALTRO":" ","OSSERVAZIO":" ","ELEV1":"290","ASPECT":"225","SLOPE":"3","Contatto_LT":"30"},"id":29},{"type":"Feature","geometry":{"type":"Point","coordinates":[9.062258300061844,40.33718670143894,298]},"properties":{"FID":"30","NAME":"145","LIT_PT_SUP":"S FIL B MC","QUANTIT":"COM","PRES_AFF_R":"NO","TIPO_AFF":"NA","NOTE":"SUP.STRUT.","VEGETAZION":" ","ALTRO":" ","OSSERVAZIO":" ","ELEV1":"298","ASPECT":"333","SLOPE":"13","Contatto_LT":"25"},"id":30},{"type":"Feature","geometry":{"type":"Point","coordinates":[9.06225749966293,40.33628570166189,300]},"properties":{"FID":"31","NAME":"146","LIT_PT_SUP":"S FIL B MC","QUANTIT":"COM","PRES_AFF_R":"NO","TIPO_AFF":"NA","NOTE":"SUP.STRUT.","VEGETAZION":" ","ALTRO":" ","OSSERVAZIO":" ","ELEV1":"300","ASPECT":"157","SLOPE":"11","Contatto_LT":"25"},"id":31},{"type":"Feature","geometry":{"type":"Point","coordinates":[9.062256600449336,40.335384801468955,284]},"properties":{"FID":"32","NAME":"147","LIT_PT_SUP":"S n","QUANTIT":"ABB","PRES_AFF_R":"NO","TIPO_AFF":"NA","NOTE":"SUP.STRUT.","VEGETAZION":" ","ALTRO":" ","OSSERVAZIO":" ","ELEV1":"284","ASPECT":"243","SLOPE":"13","Contatto_LT":"20"},"id":32},{"type":"Feature","geometry":{"type":"Point","coordinates":[9.062255800050389,40.33448390157338,275]},"properties":{"FID":"33","NAME":"148","LIT_PT_SUP":"S","QUANTIT":"ABB","PRES_AFF_R":"NO","TIPO_AFF":"NA","NOTE":"SUP.STRUT.","VEGETAZION":" ","ALTRO":" ","OSSERVAZIO":" ","ELEV1":"275","ASPECT":"266","SLOPE":"11","Contatto_LT":"25"},"id":33},{"type":"Feature","geometry":{"type":"Point","coordinates":[9.062254999651476,40.33358290131368,276]},"properties":{"FID":"34","NAME":"149","LIT_PT_SUP":"S","QUANTIT":"MLT","PRES_AFF_R":"SI","TIPO_AFF":"NA","NOTE":"SUP.STRUT.","VEGETAZION":" ","ALTRO":" ","OSSERVAZIO":" ","ELEV1":"276","ASPECT":"248","SLOPE":"8","Contatto_LT":"30"},"id":34},{"type":"Feature","geometry":{"type":"Point","coordinates":[9.062254200150893,40.332682001328465,263]},"properties":{"FID":"35","NAME":"150","LIT_PT_SUP":"S","QUANTIT":"ABB","PRES_AFF_R":"NO","TIPO_AFF":"NA","NOTE":"DEP.VERS.","VEGETAZION":" ","ALTRO":" ","OSSERVAZIO":" ","ELEV1":"263","ASPECT":"242","SLOPE":"27","Contatto_LT":"30"},"id":35},{"type":"Feature","geometry":{"type":"Point","coordinates":[9.062253300038966,40.331781101642356,250]},"properties":{"FID":"36","NAME":"151","LIT_PT_SUP":"S","QUANTIT":"COM","PRES_AFF_R":"NO","TIPO_AFF":"NA","NOTE":" ","VEGETAZION":" ","ALTRO":" ","OSSERVAZIO":" ","ELEV1":"250","ASPECT":"234","SLOPE":"6","Contatto_LT":"15"},"id":36},{"type":"Feature","geometry":{"type":"Point","coordinates":[9.062252499640051,40.330880201571,241]},"properties":{"FID":"37","NAME":"152","LIT_PT_SUP":"G S Ma","QUANTIT":"ABB","PRES_AFF_R":"SI","TIPO_AFF":"FR - CONT","NOTE":" ","VEGETAZION":" ","ALTRO":" ","OSSERVAZIO":" ","ELEV1":"241","ASPECT":"233","SLOPE":"7","Contatto_LT":"15"},"id":37},{"type":"Feature","geometry":{"type":"Point","coordinates":[9.055196599595941,40.33989300147176,333]},"properties":{"FID":"38","NAME":"28","LIT_PT_SUP":"S","QUANTIT":"MLT - MIN","PRES_AFF_R":"NO","TIPO_AFF":"NA","NOTE":"SUP.STRUT - DETR.VERS.","VEGETAZION":" ","ALTRO":" ","OSSERVAZIO":" ","ELEV1":"333","ASPECT":"172","SLOPE":"5","Contatto_LT":"30"},"id":38},{"type":"Feature","geometry":{"type":"Point","coordinates":[9.055195800095326,40.3389921015135,330]},"properties":{"FID":"39","NAME":"29","LIT_PT_SUP":"S","QUANTIT":"COM","PRES_AFF_R":"NO","TIPO_AFF":"NA","NOTE":"SUP.STRUT.","VEGETAZION":" ","ALTRO":" ","OSSERVAZIO":" ","ELEV1":"330","ASPECT":"135","SLOPE":"1","Contatto_LT":"25"},"id":39},{"type":"Feature","geometry":{"type":"Point","coordinates":[9.05519510030772,40.33809120116572,311]},"properties":{"FID":"40","NAME":"30","LIT_PT_SUP":"S SN MA G B e V MC","QUANTIT":"COM","PRES_AFF_R":"NO","TIPO_AFF":"NA","NOTE":"VERS.REG.","VEGETAZION":" ","ALTRO":" ","OSSERVAZIO":"Versante regolare in compluvio, su depositi eluvio-colluviali","ELEV1":"311","ASPECT":"164","SLOPE":"10","Contatto_LT":"20"},"id":40},{"type":"Feature","geometry":{"type":"Point","coordinates":[9.056374699666849,40.340793401206966,325]},"properties":{"FID":"41","NAME":"46","LIT_PT_SUP":"S","QUANTIT":"COM","PRES_AFF_R":"NO","TIPO_AFF":"NA","NOTE":"SUP.STRUT - DETR.VERS.","VEGETAZION":" ","ALTRO":" ","OSSERVAZIO":" ","ELEV1":"325","ASPECT":"94","SLOPE":"9","Contatto_LT":"5"},"id":41},{"type":"Feature","geometry":{"type":"Point","coordinates":[9.05637320037866,40.33899150101312,321]},"properties":{"FID":"42","NAME":"48","LIT_PT_SUP":"S","QUANTIT":"COM","PRES_AFF_R":"NO","TIPO_AFF":"NA","NOTE":"SUP.STRUT.","VEGETAZION":" ","ALTRO":" ","OSSERVAZIO":" ","ELEV1":"321","ASPECT":"0","SLOPE":"0","Contatto_LT":"20"},"id":42},{"type":"Feature","geometry":{"type":"Point","coordinates":[9.056372399979747,40.33809060134207,318]},"properties":{"FID":"43","NAME":"49","LIT_PT_SUP":"S SN MA G B e V MC","QUANTIT":"ABB","PRES_AFF_R":"NO","TIPO_AFF":"NA","NOTE":"VERS.REG.","VEGETAZION":" ","ALTRO":"G B e V MC occasionali","OSSERVAZIO":"Versante regolare coperto da depositi gravitazionali e colluviali, qualche occasionale affioramento, grossi blocchi substrato","ELEV1":"318","ASPECT":"217","SLOPE":"14","Contatto_LT":"20"},"id":43},{"type":"Feature","geometry":{"type":"Point","coordinates":[9.056371700192141,40.33718970128209,300]},"properties":{"FID":"44","NAME":"50","LIT_PT_SUP":"S SN MA","QUANTIT":"MLT","PRES_AFF_R":"SI","TIPO_AFF":"FR","NOTE":"VERS.GRAD.","VEGETAZION":" ","ALTRO":" ","OSSERVAZIO":"Versante con gradone poco pi? a monte, affioramento roccioso (scisto), debole copertura colluviale","ELEV1":"300","ASPECT":"135","SLOPE":"3","Contatto_LT":"20"},"id":44},{"type":"Feature","geometry":{"type":"Point","coordinates":[9.056370899793228,40.336288701545094,303]},"properties":{"FID":"45","NAME":"51","LIT_PT_SUP":"S MA","QUANTIT":"COM - MLT","PRES_AFF_R":"SI","TIPO_AFF":"FR","NOTE":"VERS.GRAD.","VEGETAZION":" ","ALTRO":" ","OSSERVAZIO":"Versante a gradoni, affioramenti rocciosi (scisto)","ELEV1":"303","ASPECT":"63","SLOPE":"6","Contatto_LT":"20"},"id":45},{"type":"Feature","geometry":{"type":"Point","coordinates":[9.057552799737788,40.34169370128438,311]},"properties":{"FID":"46","NAME":"64","LIT_PT_SUP":"S","QUANTIT":"SCR","PRES_AFF_R":"NO","TIPO_AFF":"NA","NOTE":"SUP.STRUT. - COLL.","VEGETAZION":" ","ALTRO":"SPIETRATO E LAVORATO","OSSERVAZIO":" ","ELEV1":"311","ASPECT":"68","SLOPE":"8","Contatto_LT":"0"},"id":46},{"type":"Feature","geometry":{"type":"Point","coordinates":[9.057552099950184,40.34079280140734,308]},"properties":{"FID":"47","NAME":"65","LIT_PT_SUP":"S FIL B MC","QUANTIT":"MLT","PRES_AFF_R":"NO","TIPO_AFF":"NA","NOTE":"SUP.STRUT. - COLL.","VEGETAZION":" ","ALTRO":"SPIETRATO E LAVORATO - Presenza di cani","OSSERVAZIO":" ","ELEV1":"308","ASPECT":"105","SLOPE":"8","Contatto_LT":"35"},"id":47},{"type":"Feature","geometry":{"type":"Point","coordinates":[9.057549800263047,40.3380900015184,323]},"properties":{"FID":"48","NAME":"68","LIT_PT_SUP":"S FIL B MC","QUANTIT":"MLT","PRES_AFF_R":"SI","TIPO_AFF":"FR","NOTE":"SUP.STRUT.","VEGETAZION":" ","ALTRO":"QUARZITE","OSSERVAZIO":" ","ELEV1":"323","ASPECT":"157","SLOPE":"5","Contatto_LT":"20"},"id":48},{"type":"Feature","geometry":{"type":"Point","coordinates":[9.057548999864133,40.33718910145041,304]},"properties":{"FID":"49","NAME":"69","LIT_PT_SUP":"S FIL B e V MC","QUANTIT":"ABB","PRES_AFF_R":"SI","TIPO_AFF":"FR","NOTE":"SUP.STRUT - DETR.VERS.","VEGETAZION":" ","ALTRO":" ","OSSERVAZIO":" ","ELEV1":"304","ASPECT":"190","SLOPE":"12","Contatto_LT":"15"},"id":49},{"type":"Feature","geometry":{"type":"Point","coordinates":[9.05754820036355,40.33628820099395,286]},"properties":{"FID":"50","NAME":"70","LIT_PT_SUP":"S FIL B e V MC","QUANTIT":"MLT","PRES_AFF_R":"NO","TIPO_AFF":"NA","NOTE":"DETR.VERS. - COLL.","VEGETAZION":" ","ALTRO":" ","OSSERVAZIO":" ","ELEV1":"286","ASPECT":"119","SLOPE":"7","Contatto_LT":"15"},"id":50},{"type":"Feature","geometry":{"type":"Point","coordinates":[9.057547499677616,40.33538720154447,290]},"properties":{"FID":"51","NAME":"71","LIT_PT_SUP":"S FIL B e V MC","QUANTIT":"MLT","PRES_AFF_R":"NO","TIPO_AFF":"NA","NOTE":"SUP.STRUT.","VEGETAZION":" ","ALTRO":" ","OSSERVAZIO":" ","ELEV1":"290","ASPECT":"90","SLOPE":"3","Contatto_LT":"20"},"id":51},{"type":"Feature","geometry":{"type":"Point","coordinates":[9.058731000420037,40.342594101635264,309]},"properties":{"FID":"52","NAME":"82","LIT_PT_SUP":"S FIL B MC","QUANTIT":"SCR","PRES_AFF_R":"NO","TIPO_AFF":"NA","NOTE":"SUP.STRUT. - COLL.","VEGETAZION":" ","ALTRO":"SPIETRATO E LAVORATO","OSSERVAZIO":" ","ELEV1":"309","ASPECT":"180","SLOPE":"6","Contatto_LT":"25"},"id":52},{"type":"Feature","geometry":{"type":"Point","coordinates":[9.058730200021124,40.341693101492744,302]},"properties":{"FID":"53","NAME":"83","LIT_PT_SUP":"S MA","QUANTIT":"SCR","PRES_AFF_R":"NO","TIPO_AFF":"NA","NOTE":"SUP.STRUT. ?","VEGETAZION":" ","ALTRO":"Litologia superficiale da poca a assente, coperta da erba alta","OSSERVAZIO":"Parte bassa di versante regolare che termina a valle con aff. Roccioso esteso di S e Ma (contropendenza)","ELEV1":"302","ASPECT":"135","SLOPE":"4","Contatto_LT":"30"},"id":53},{"type":"Feature","geometry":{"type":"Point","coordinates":[9.058729500233518,40.3407922016077,302]},"properties":{"FID":"54","NAME":"84","LIT_PT_SUP":"S MA","QUANTIT":"COM","PRES_AFF_R":"SI","TIPO_AFF":"FR","NOTE":" ","VEGETAZION":" ","ALTRO":" ","OSSERVAZIO":"Piede versante. Affioramenti rocciosi forse creati da spietramenti in passato, grossi blocchi","ELEV1":"302","ASPECT":"63","SLOPE":"3","Contatto_LT":"30"},"id":54},{"type":"Feature","geometry":{"type":"Point","coordinates":[9.058728699834603,40.33989130133207,305]},"properties":{"FID":"55","NAME":"85","LIT_PT_SUP":"S MA","QUANTIT":"COM","PRES_AFF_R":"NO","TIPO_AFF":"NA","NOTE":"VERS.REG.","VEGETAZION":" ","ALTRO":" ","OSSERVAZIO":" ","ELEV1":"305","ASPECT":"63","SLOPE":"6","Contatto_LT":"30"},"id":55},{"type":"Feature","geometry":{"type":"Point","coordinates":[9.058727900333988,40.338990401351104,315]},"properties":{"FID":"56","NAME":"86","LIT_PT_SUP":"S MA + FIL G MC","QUANTIT":"MLT","PRES_AFF_R":"SI","TIPO_AFF":"NA","NOTE":"SUP.STRUT. - VERS.GRAD.","VEGETAZION":" ","ALTRO":" ","OSSERVAZIO":"Litologia versante dominata da scisto. Versante con gradoni creati da aff.roccioso di aspetto granitoide","ELEV1":"315","ASPECT":"63","SLOPE":"10","Contatto_LT":"25"},"id":56},{"type":"Feature","geometry":{"type":"Point","coordinates":[9.058727099935075,40.33808940101005,314]},"properties":{"FID":"57","NAME":"87","LIT_PT_SUP":"S MA SN","QUANTIT":"MLT","PRES_AFF_R":"SI","TIPO_AFF":"NA","NOTE":"SUP.STRUT. - VERS.GRAD.","VEGETAZION":" ","ALTRO":" ","OSSERVAZIO":"Litologia versante dominata da scisto. Versante con gradoni creati da aff.roccioso di aspetto granitoide","ELEV1":"314","ASPECT":"117","SLOPE":"6","Contatto_LT":"20"},"id":57},{"type":"Feature","geometry":{"type":"Point","coordinates":[9.05872630043449,40.33718850161875,303]},"properties":{"FID":"58","NAME":"88","LIT_PT_SUP":"S SN MA G B e V MC","QUANTIT":"MLT - ABB","PRES_AFF_R":"SI","TIPO_AFF":"FR","NOTE":" ","VEGETAZION":" ","ALTRO":" ","OSSERVAZIO":"Affioramenti rocciosi poco pi? a monte, aspetto misto, granotoide e metamorfico (grossi blocchi)","ELEV1":"303","ASPECT":"180","SLOPE":"11","Contatto_LT":"25"},"id":58},{"type":"Feature","geometry":{"type":"Point","coordinates":[9.058725500035544,40.33628760115426,284]},"properties":{"FID":"59","NAME":"89","LIT_PT_SUP":"S MA","QUANTIT":"COM","PRES_AFF_R":"SI","TIPO_AFF":"FR","NOTE":" ","VEGETAZION":" ","ALTRO":" ","OSSERVAZIO":"Affioramenti rocciosi poco pi? a valle e a monte (Scisto/Ma) rendono il versante irregolare/gibboso e convesso","ELEV1":"284","ASPECT":"194","SLOPE":"12","Contatto_LT":"15"},"id":59},{"type":"Feature","geometry":{"type":"Point","coordinates":[9.058723999849024,40.334485701140515,279]},"properties":{"FID":"60","NAME":"91","LIT_PT_SUP":"S MA G B e V MC","QUANTIT":"MLT","PRES_AFF_R":"NO","TIPO_AFF":"NA","NOTE":"VERS.REG.","VEGETAZION":" ","ALTRO":" ","OSSERVAZIO":"Versante regolare, deposito eluvio-colluviale","ELEV1":"279","ASPECT":"162","SLOPE":"5","Contatto_LT":"10"},"id":60},{"type":"Feature","geometry":{"type":"Point","coordinates":[9.05872320034844,40.33358480156693,276]},"properties":{"FID":"61","NAME":"92","LIT_PT_SUP":"Ma C FIL B MC","QUANTIT":"SCR","PRES_AFF_R":"NO","TIPO_AFF":"NA","NOTE":"SUP.STRUT.","VEGETAZION":" ","ALTRO":" ","OSSERVAZIO":" ","ELEV1":"276","ASPECT":"90","SLOPE":"6","Contatto_LT":"25"},"id":61},{"type":"Feature","geometry":{"type":"Point","coordinates":[9.061086382196697,40.331668710380846,258]},"properties":{"FID":"62","NAME":"132","LIT_PT_SUP":"S MA","QUANTIT":"MLT","PRES_AFF_R":"SI","TIPO_AFF":"FR","NOTE":" ","VEGETAZION":" ","ALTRO":" ","OSSERVAZIO":" ","ELEV1":"258","ASPECT":"98","SLOPE":"24","Contatto_LT":"0"},"id":62},{"type":"Feature","geometry":{"type":"Point","coordinates":[9.061798232380669,40.33771311742872,285]},"properties":{"FID":"63","NAME":"126b","LIT_PT_SUP":"FIL G B MC","QUANTIT":"MLT","PRES_AFF_R":"SI","TIPO_AFF":"FR","NOTE":" ","VEGETAZION":" ","ALTRO":" ","OSSERVAZIO":"Esteso aff. roccioso granitoide con grandi massi affioranti, fratturati. Evidenti piani di frattura da metamorfismo di contatto","ELEV1":"285","ASPECT":"266","SLOPE":"9","Contatto_LT":"20"},"id":63},{"type":"Feature","geometry":{"type":"Point","coordinates":[9.062811958720918,40.3390279254246,302]},"properties":{"FID":"64","NAME":"Pozzo","LIT_PT_SUP":"S FIL G B MC","QUANTIT":"SCR","PRES_AFF_R":"NO","TIPO_AFF":"NA","NOTE":" ","VEGETAZION":" ","ALTRO":" ","OSSERVAZIO":"Sul crinale, vicino al pozzo, suolo compatto, scheletrico","ELEV1":"302","ASPECT":"207","SLOPE":"3","Contatto_LT":"20"},"id":64}]}