{
"type": "FeatureCollection",
"name": "suoli",
"crs": { "type": "name", "properties": { "name": "urn:ogc:def:crs:EPSG::4979" } },
"features": [
{ "type": "Feature", "properties": { "LAYER": "Unknown Area Type", "OBJECTID": 4, "UNITA": "B2", "SUBSTRATO": "Metamorfiti (scisti, scisti arenacei, argilloscisti, ecc.) del Paleozoico e relativi depositi di versante.", "MORFOLOGIA": "Aree con forme da aspre a subpianeggianti al di sotto degli 800-1000 m.", "DESCRIZION": "Profili A-C, A-Bw-C e subordinatamente roccia affiorante, da poco a mediamente profondi, da franco sabbiosi a franco argillosi, da permeabili a mediamente permeabili, subacidi, parzialmente desaturati.", "TASSONOMIA": "TYPIC, DYSTRIC, LITHIC XERORTHENTS E TYPIC, DYSTRIC, LITHIC XEROCHREPTS, subordinatamente PALEXERALFS E HAPLOXERALFS, ROCK OUTCROP, XEROFLUVENTS", "CLASSI": "VII - VI", "COPERTURA": "Aree con scarsa copertura arbustiva ed arborea.", "LIMITAZION": "A tratti: rocciosita' e pietrosita' elevate, scarsa profondita', eccesso di scheletro. Forte pericolo di erosione.", "ATTITUDINI": "Conservazione e ripristino della vegetazione naturale, riduzione graduale del pascolamento, a tratti colture agrarie.", "SIGLA_PEDO": "B2" }, "geometry": { "type": "MultiPolygon", "coordinates": [ [ [ [ 9.047716462351481, 40.338710605857692 ], [ 9.047722007732647, 40.346580607530463 ], [ 9.048549526400585, 40.346580263152653 ], [ 9.048782947313118, 40.346351797774382 ], [ 9.049418375902835, 40.345792957383807 ], [ 9.050347897537375, 40.344882627227861 ], [ 9.051419103305509, 40.34452178722583 ], [ 9.052148938058762, 40.344287221402773 ], [ 9.052619669600787, 40.343971685738481 ], [ 9.053302042202176, 40.343286673598406 ], [ 9.053961218746375, 40.343061138099152 ], [ 9.055032500879852, 40.34285342113413 ], [ 9.055797583128241, 40.342564760747905 ], [ 9.056715645813275, 40.342185926798223 ], [ 9.057669081716117, 40.341879142958334 ], [ 9.058516745365864, 40.341806643089008 ], [ 9.059234752233522, 40.341572038439537 ], [ 9.059917591656216, 40.341517631128646 ], [ 9.060777088187736, 40.341517182714362 ], [ 9.061565955966829, 40.341534784065395 ], [ 9.062649139515791, 40.341516183928441 ], [ 9.063861717363466, 40.34137137341596 ], [ 9.064721064436174, 40.341217739102092 ], [ 9.065698146697953, 40.341064031589966 ], [ 9.066839976495288, 40.34082913821203 ], [ 9.067864116602211, 40.340648357383529 ], [ 9.068652793392026, 40.340485726915794 ], [ 9.069406136991633, 40.340314102101701 ], [ 9.070041870897155, 40.340268672542635 ], [ 9.070559838166128, 40.340196284475887 ], [ 9.071336891955482, 40.340186798590324 ], [ 9.072208211212414, 40.340249321942473 ], [ 9.072938170304925, 40.340239854689287 ], [ 9.07351813905573, 40.34031812302841 ], [ 9.073503974277171, 40.327264521573682 ], [ 9.063961583874159, 40.327270191318874 ], [ 9.063790129368616, 40.327866590913274 ], [ 9.063590630287401, 40.328524374400438 ], [ 9.063308851871476, 40.32931734094948 ], [ 9.062909045664592, 40.329786039321107 ], [ 9.062450300209754, 40.330173684528482 ], [ 9.06207399419548, 40.330606330113397 ], [ 9.06202835751796, 40.3321919788076 ], [ 9.061712693875146, 40.33394786484493 ], [ 9.061394775927713, 40.334534714751072 ], [ 9.061230161823419, 40.33476003219495 ], [ 9.060900841238109, 40.335111566136227 ], [ 9.060524377188987, 40.335409067223601 ], [ 9.059841894306786, 40.335796819470367 ], [ 9.059053453896349, 40.336193630183985 ], [ 9.057993939134677, 40.336257230271734 ], [ 9.057110759245775, 40.336014420997024 ], [ 9.05602716284338, 40.335429351436552 ], [ 9.054861693374249, 40.335483965734412 ], [ 9.053778625521648, 40.335529519829727 ], [ 9.052648451542074, 40.335557067577604 ], [ 9.05170671728362, 40.335683621365874 ], [ 9.051047719230148, 40.33606230194026 ], [ 9.050683202139247, 40.336657070029133 ], [ 9.050424570836137, 40.337161699841253 ], [ 9.050389760492356, 40.337846415448105 ], [ 9.050272589815958, 40.338603240077603 ], [ 9.049848872686796, 40.338774598753588 ], [ 9.048518389831729, 40.338658044814807 ], [ 9.047716462351481, 40.338710605857692 ] ] ] ] } },
{ "type": "Feature", "properties": { "LAYER": "Unknown Area Type", "OBJECTID": 9, "UNITA": "C2", "SUBSTRATO": "Rocce intrusive (graniti, granodioriti, leucograniti, ecc.) del Paleozoico e relativi depositi di versante.", "MORFOLOGIA": "Aree con forme da aspre a subpianeggianti al di sotto degli 800-1000 m.", "DESCRIZION": "Profili A-C, A-Bw-C, roccia affiorante e subordinatamente suoli a profilo A-Bt-C, da poco a mediamente profondi, da sabbioso franchi a franco sabbioso argillosi, permeabili, da subacidi ad acidi, parzialmente desaturati.", "TASSONOMIA": "TYPIC, DYSTRIC, LITHIC XERORTHENTS, TYPIC, DYSTRIC, LITHIC XEROCHREPTS, ROCK OUTCROP, subordinatamente PALEXERALFS, HAPLOXERALFS", "CLASSI": "VII - VI - IV", "COPERTURA": "Aree con scarsa copertura arbustiva ed arborea.", "LIMITAZION": "A tratti, rocciosita' e pietrosita' elevate, scarsa profondita', eccesso di scheletro. Forte pericolo di erosione.", "ATTITUDINI": "Conservazione e rispristino della vegetazione naturale, a tratti colture arboree previa sistemazione dei versanti ed opere per la regimazione dei deflussi.", "SIGLA_PEDO": "C2" }, "geometry": { "type": "MultiPolygon", "coordinates": [ [ [ [ 9.047708410610383, 40.327278036212654 ], [ 9.047716462351481, 40.338710605857692 ], [ 9.048518389831729, 40.338658044814807 ], [ 9.049848872686796, 40.338774598753588 ], [ 9.050272589815958, 40.338603240077603 ], [ 9.050389760492356, 40.337846415448105 ], [ 9.050424570836137, 40.337161699841253 ], [ 9.050683202139247, 40.336657070029133 ], [ 9.051047719230148, 40.33606230194026 ], [ 9.05170671728362, 40.335683621365874 ], [ 9.052648451542074, 40.335557067577604 ], [ 9.053778625521648, 40.335529519829727 ], [ 9.054861693374249, 40.335483965734412 ], [ 9.05602716284338, 40.335429351436552 ], [ 9.057110759245775, 40.336014420997024 ], [ 9.057993939134677, 40.336257230271734 ], [ 9.059053453896349, 40.336193630183985 ], [ 9.059841894306786, 40.335796819470367 ], [ 9.060524377188987, 40.335409067223601 ], [ 9.060900841238109, 40.335111566136227 ], [ 9.061230161823419, 40.33476003219495 ], [ 9.061394775927713, 40.334534714751072 ], [ 9.061712693875146, 40.33394786484493 ], [ 9.06202835751796, 40.3321919788076 ], [ 9.06207399419548, 40.330606330113397 ], [ 9.062450300209754, 40.330173684528482 ], [ 9.062909045664592, 40.329786039321107 ], [ 9.063308851871476, 40.32931734094948 ], [ 9.063590630287401, 40.328524374400438 ], [ 9.063790129368616, 40.327866590913274 ], [ 9.063961583874159, 40.327270191318874 ], [ 9.047708410610383, 40.327278036212654 ] ] ], [ [ [ 9.073524923243561, 40.346567083720728 ], [ 9.07351813905573, 40.34031812302841 ], [ 9.072938170304925, 40.340239854689287 ], [ 9.072208211212414, 40.340249321942473 ], [ 9.071336891955482, 40.340186798590324 ], [ 9.070559838166128, 40.340196284475887 ], [ 9.070041870897155, 40.340268672542635 ], [ 9.069406136991633, 40.340314102101701 ], [ 9.068652793392026, 40.340485726915794 ], [ 9.067864116602211, 40.340648357383529 ], [ 9.066839976495288, 40.34082913821203 ], [ 9.065698146697953, 40.341064031589966 ], [ 9.064721064436174, 40.341217739102092 ], [ 9.063861717363466, 40.34137137341596 ], [ 9.062649139515791, 40.341516183928441 ], [ 9.061565955966829, 40.341534784065395 ], [ 9.060777088187736, 40.341517182714362 ], [ 9.059917591656216, 40.341517631128646 ], [ 9.059234752233522, 40.341572038439537 ], [ 9.058516745365864, 40.341806643089008 ], [ 9.057669081716117, 40.341879142958334 ], [ 9.056715645813275, 40.342185926798223 ], [ 9.055797583128241, 40.342564760747905 ], [ 9.055032500879852, 40.34285342113413 ], [ 9.053961218746375, 40.343061138099152 ], [ 9.053302042202176, 40.343286673598406 ], [ 9.052619669600787, 40.343971685738481 ], [ 9.052148938058762, 40.344287221402773 ], [ 9.051419103305509, 40.34452178722583 ], [ 9.050347897537375, 40.344882627227861 ], [ 9.049418375902835, 40.345792957383807 ], [ 9.048782947313118, 40.346351797774382 ], [ 9.048549526400585, 40.346580263152653 ], [ 9.073524923243561, 40.346567083720728 ] ] ] ] } }
]
}
